{"type":"FeatureCollection","attribution":"© OpenStreetMap contributors, ODbL. Simplified.","features":[{"type":"Feature","id":0,"properties":{"id":"esil","nameRu":"Есиль","osmRelation":3479876,"centroid":[71.47911,51.02846]},"geometry":{"type":"MultiPolygon","coordinates":[[[[71.42934,51.15102],[71.43586,51.14959],[71.44101,51.1458],[71.44179,51.14049],[71.44748,51.13057],[71.45256,51.12622],[71.4516,51.12392],[71.4464,51.12173],[71.44585,51.12],[71.45011,51.1152],[71.45112,51.10889],[71.45689,51.10607],[71.47166,51.10545],[71.48021,51.10102],[71.48972,51.09963],[71.50005,51.10355],[71.51427,51.10081],[71.52368,51.10327],[71.52762,51.1034],[71.58779,51.09719],[71.60827,51.09139],[71.60348,51.08586],[71.58805,51.0747],[71.57947,51.07042],[71.56425,51.05745],[71.55589,51.04887],[71.54741,51.05111],[71.54554,51.04891],[71.53975,51.04817],[71.55024,51.0296],[71.55585,51.01538],[71.54412,51.01177],[71.53852,51.0088],[71.53703,51.00686],[71.53722,50.98846],[71.55263,50.9756],[71.5543,50.9683],[71.5487,50.94651],[71.54693,50.93089],[71.48656,50.93082],[71.4827,50.93962],[71.47161,50.93765],[71.46922,50.94582],[71.46669,50.94769],[71.46057,50.9472],[71.46319,50.95846],[71.45091,50.96044],[71.45633,50.98256],[71.45164,50.98331],[71.45419,51.00086],[71.43795,51.00368],[71.43676,51.00311],[71.43528,51.00416],[71.38179,51.01286],[71.3813,51.02109],[71.38282,51.03195],[71.41124,51.11113],[71.41536,51.13369],[71.42371,51.14753],[71.42934,51.15102]]],[[[71.37325,50.88633],[71.44251,50.87708],[71.43624,50.85761],[71.3667,50.8669],[71.37325,50.88633]]]]}},{"type":"Feature","id":1,"properties":{"id":"almaty","nameRu":"Алматы","osmRelation":3482819,"centroid":[71.58145,51.15344]},"geometry":{"type":"MultiPolygon","coordinates":[[[[71.43847,51.14754],[71.44101,51.1458],[71.44179,51.14049],[71.44739,51.13116],[71.48341,51.12545],[71.51895,51.13527],[71.52445,51.13981],[71.53236,51.13701],[71.53889,51.1359],[71.56647,51.13576],[71.63358,51.12428],[71.64588,51.12193],[71.7021,51.10768],[71.71467,51.13135],[71.68869,51.14043],[71.67304,51.14009],[71.67304,51.14101],[71.6452,51.1399],[71.62145,51.18818],[71.58782,51.19855],[71.58295,51.20329],[71.58003,51.20276],[71.56863,51.19673],[71.56295,51.19528],[71.55704,51.19084],[71.54097,51.18859],[71.53672,51.18451],[71.53391,51.18347],[71.5334,51.18073],[71.52838,51.17911],[71.52383,51.17818],[71.51494,51.18206],[71.50489,51.18354],[71.49776,51.17577],[71.4946,51.17562],[71.49164,51.17266],[71.48534,51.16888],[71.48086,51.1678],[71.47764,51.16414],[71.47402,51.16366],[71.47192,51.1616],[71.45958,51.15551],[71.44763,51.15194],[71.43847,51.14754]]],[[[71.74039,51.16606],[71.74686,51.16215],[71.76088,51.14572],[71.76614,51.14469],[71.78242,51.15046],[71.78519,51.1573],[71.78511,51.16557],[71.74039,51.16606]]]]}},{"type":"Feature","id":2,"properties":{"id":"saryarka","nameRu":"Сарыарка","osmRelation":3486954,"centroid":[71.33247,51.19893]},"geometry":{"type":"MultiPolygon","coordinates":[[[[71.2373,51.20869],[71.24283,51.20676],[71.24274,51.20278],[71.2402,51.20329],[71.24003,51.20197],[71.24504,51.19858],[71.24234,51.19783],[71.24883,51.19499],[71.25002,51.19321],[71.25266,51.19264],[71.25138,51.19078],[71.25211,51.19025],[71.25406,51.19131],[71.2557,51.18936],[71.25745,51.19031],[71.25932,51.18998],[71.2609,51.19223],[71.26192,51.19155],[71.26115,51.19115],[71.2615,51.19026],[71.26452,51.18995],[71.26484,51.18894],[71.26667,51.18974],[71.26724,51.1887],[71.26908,51.18965],[71.27688,51.18764],[71.29205,51.18925],[71.29759,51.18667],[71.29643,51.18623],[71.29808,51.18437],[71.29946,51.18421],[71.29866,51.18347],[71.30521,51.182],[71.30759,51.18232],[71.30945,51.18153],[71.30999,51.17987],[71.31474,51.17986],[71.31981,51.17729],[71.32117,51.17785],[71.32306,51.17669],[71.32657,51.17782],[71.32762,51.17675],[71.32698,51.17535],[71.33053,51.17387],[71.33109,51.17268],[71.33425,51.17424],[71.33748,51.1744],[71.3444,51.17277],[71.34795,51.17081],[71.34991,51.16767],[71.35634,51.16451],[71.37382,51.16458],[71.39526,51.16281],[71.39903,51.15968],[71.40668,51.15735],[71.40936,51.15721],[71.41933,51.16042],[71.42178,51.16024],[71.42471,51.15845],[71.42823,51.1519],[71.43146,51.15418],[71.43022,51.15533],[71.42414,51.17723],[71.43978,51.17924],[71.44356,51.18122],[71.4464,51.18435],[71.3672,51.20946],[71.36326,51.21166],[71.35612,51.21867],[71.35339,51.21988],[71.30326,51.23588],[71.30159,51.23323],[71.26032,51.24632],[71.25568,51.2388],[71.24469,51.22513],[71.24772,51.22439],[71.24617,51.22111],[71.24109,51.21536],[71.24146,51.21416],[71.24005,51.21234],[71.24111,51.21108],[71.23745,51.20964],[71.2373,51.20869]]]]}},{"type":"Feature","id":3,"properties":{"id":"baikonur","nameRu":"Байконур","osmRelation":8593081,"centroid":[71.4652,51.23535]},"geometry":{"type":"MultiPolygon","coordinates":[[[[71.29809,51.27276],[71.30925,51.26385],[71.33622,51.2717],[71.3202,51.29539],[71.30612,51.29096],[71.30788,51.2777],[71.29809,51.27276]]],[[[71.30326,51.23588],[71.35438,51.2195],[71.35831,51.21696],[71.36326,51.21166],[71.3672,51.20946],[71.4464,51.18435],[71.44356,51.18122],[71.43978,51.17924],[71.42414,51.17723],[71.43022,51.15533],[71.43146,51.15418],[71.42823,51.1519],[71.43106,51.15027],[71.43586,51.14959],[71.43847,51.14754],[71.44763,51.15194],[71.45958,51.15551],[71.47192,51.1616],[71.47402,51.16366],[71.47764,51.16414],[71.48086,51.1678],[71.48534,51.16888],[71.49164,51.17266],[71.4946,51.17562],[71.49776,51.17577],[71.50489,51.18354],[71.51494,51.18206],[71.52383,51.17818],[71.52838,51.17911],[71.5334,51.18073],[71.53391,51.18347],[71.53672,51.18451],[71.54097,51.18859],[71.55704,51.19084],[71.56295,51.19528],[71.56863,51.19673],[71.58003,51.20276],[71.58295,51.20329],[71.57405,51.22038],[71.61863,51.24851],[71.594,51.2775],[71.57647,51.26308],[71.56698,51.25748],[71.56617,51.25281],[71.56258,51.24875],[71.5583,51.24852],[71.55106,51.24315],[71.47167,51.26329],[71.49823,51.28369],[71.49839,51.29005],[71.4759,51.28641],[71.46855,51.27846],[71.45038,51.27159],[71.42812,51.27467],[71.40005,51.26735],[71.38511,51.30234],[71.35561,51.29772],[71.36641,51.27122],[71.34669,51.26733],[71.34594,51.26851],[71.34212,51.26711],[71.34083,51.26873],[71.33491,51.26666],[71.31903,51.25273],[71.30326,51.23588]]],[[[71.64153,51.33167],[71.65131,51.32152],[71.67187,51.30943],[71.67423,51.31114],[71.67042,51.31377],[71.67332,51.31566],[71.6716,51.31656],[71.68424,51.32565],[71.6866,51.32889],[71.69737,51.33534],[71.70391,51.34283],[71.70633,51.3476],[71.70113,51.34977],[71.69774,51.34659],[71.69271,51.34888],[71.6951,51.35111],[71.68387,51.35094],[71.66781,51.33988],[71.64153,51.33167]]]]}},{"type":"Feature","id":4,"properties":{"id":"nura","nameRu":"Нура","osmRelation":20593940,"centroid":[71.32182,51.10276]},"geometry":{"type":"MultiPolygon","coordinates":[[[[71.21797,51.11079],[71.22588,51.10018],[71.24545,51.06831],[71.25019,51.0682],[71.25552,51.06367],[71.2558,51.06183],[71.25399,51.05602],[71.25499,51.04895],[71.26018,51.04558],[71.2633,51.04171],[71.26596,51.04061],[71.26788,51.03879],[71.26929,51.0343],[71.27558,51.03029],[71.28067,51.02521],[71.28596,51.02229],[71.28896,51.0217],[71.30288,51.02288],[71.30773,51.02237],[71.3184,51.02393],[71.33169,51.02164],[71.33547,51.01927],[71.38105,51.01316],[71.3805,51.02112],[71.38204,51.03214],[71.41049,51.1114],[71.4146,51.13398],[71.42311,51.14808],[71.42823,51.1519],[71.42471,51.15845],[71.42178,51.16024],[71.41933,51.16042],[71.40936,51.15721],[71.40668,51.15735],[71.39903,51.15968],[71.39526,51.16281],[71.37382,51.16458],[71.35634,51.16451],[71.34991,51.16767],[71.34795,51.17081],[71.3444,51.17277],[71.33748,51.1744],[71.33425,51.17424],[71.33109,51.17268],[71.33053,51.17387],[71.32698,51.17535],[71.32762,51.17675],[71.32657,51.17782],[71.32306,51.17669],[71.32117,51.17785],[71.31981,51.17729],[71.31474,51.17986],[71.30999,51.17987],[71.30945,51.18153],[71.30759,51.18232],[71.30521,51.182],[71.29866,51.18347],[71.29946,51.18421],[71.29808,51.18437],[71.29643,51.18623],[71.29759,51.18667],[71.29205,51.18925],[71.27688,51.18764],[71.27213,51.18805],[71.27198,51.18707],[71.26987,51.18614],[71.27086,51.18336],[71.27273,51.18372],[71.27178,51.18279],[71.27331,51.18137],[71.27572,51.1821],[71.27634,51.18012],[71.27983,51.18114],[71.28192,51.17939],[71.26539,51.17432],[71.25298,51.17596],[71.25443,51.15823],[71.24277,51.15764],[71.24259,51.1524],[71.23858,51.15232],[71.2385,51.1497],[71.23616,51.14965],[71.23672,51.13287],[71.23748,51.13252],[71.22971,51.12292],[71.22845,51.11922],[71.22894,51.11511],[71.21797,51.11079]]]]}}]}